
# Worst residual: 58.73 km
# MJD 59002.000000 (2020 Jun  2  0:00)
ZTF0Dy2
1 99999U 00000    20154.49919926  .00000000  00000-0  00000-0 0  9637
2 99999 035.5842 332.8369 6193954 120.4436 173.4413 01.04708194    02

# Worst residual: 72.85 km
# MJD 59003.000000 (2020 Jun  3  0:00)
ZTF0Dy2
1 99999U 00000    20155.49919926  .00000000  00000-0  00000-0 0  9638
2 99999 035.6471 332.6182 6226768 121.3777 190.3562 01.04702164    04

# Worst residual: 105.76 km
# MJD 59004.000000 (2020 Jun  4  0:00)
ZTF0Dy2
1 99999U 00000    20156.49919926  .00000000  00000-0  00000-0 0  9639
2 99999 035.7151 332.3977 6267128 122.3011 207.2944 01.04754375    09

# Worst residual: 128.04 km
# MJD 59005.000000 (2020 Jun  5  0:00)
ZTF0Dy2
1 99999U 00000    20157.49919926  .00000000  00000-0  00000-0 0  9630
2 99999 035.7604 332.2078 6311778 123.2545 224.1679 01.04834752    07

# Worst residual: 182.04 km
# MJD 59006.000000 (2020 Jun  6  0:00)
ZTF0Dy2
1 99999U 00000    20158.49919926  .00000000  00000-0  00000-0 0  9631
2 99999 035.8429 331.9751 6350430 124.2468 240.9910 01.04900106    01

# Worst residual: 221.31 km
# MJD 59007.000000 (2020 Jun  7  0:00)
ZTF0Dy2
1 99999U 00000    20159.49919926  .00000000  00000-0  00000-0 0  9632
2 99999 035.9141 331.7611 6388628 125.2229 257.8478 01.04981666    08

# Worst residual: 219.08 km
# MJD 59008.000000 (2020 Jun  8  0:00)
ZTF0Dy2
1 99999U 00000    20160.49919926  .00000000  00000-0  00000-0 0  9634
2 99999 035.9902 331.5530 6422911 126.2050 274.6864 01.05052800    04

# Worst residual: 195.02 km
# MJD 59009.000000 (2020 Jun  9  0:00)
ZTF0Dy2
1 99999U 00000    20161.49919926  .00000000  00000-0  00000-0 0  9635
2 99999 036.0624 331.3556 6454678 127.1655 291.5557 01.05125891    07

# Worst residual: 164.66 km
# MJD 59010.000000 (2020 Jun 10  0:00)
ZTF0Dy2
1 99999U 00000    20162.49919926  .00000000  00000-0  00000-0 0  9636
2 99999 036.1354 331.1616 6485881 128.0985 308.4785 01.05200207    05

# Worst residual: 165.00 km
# MJD 59011.000000 (2020 Jun 11  0:00)
ZTF0Dy2
1 99999U 00000    20163.49919926  .00000000  00000-0  00000-0 0  9637
2 99999 036.2061 330.9762 6515536 129.0189 325.4084 01.05265597    02

# Worst residual: 140.22 km
# MJD 59012.000000 (2020 Jun 12  0:00)
ZTF0Dy2
1 99999U 00000    20164.49919926  .00000000  00000-0  00000-0 0  9638
2 99999 036.2709 330.7846 6543754 129.9150 342.4030 01.05302594    01

# Worst residual: 110.49 km
# MJD 59013.000000 (2020 Jun 13  0:00)
ZTF0Dy2
1 99999U 00000    20165.49919926  .00000000  00000-0  00000-0 0  9639
2 99999 036.3522 330.5964 6574982 130.7912 359.4049 01.05331478    08

# Worst residual: 141.78 km
# MJD 59014.000000 (2020 Jun 14  0:00)
ZTF0Dy2
1 99999U 00000    20166.49919926  .00000000  00000-0  00000-0 0  9630
2 99999 036.4171 330.4369 6604019 131.6417 016.4044 01.05314032    04

# Worst residual: 164.04 km
# MJD 59015.000000 (2020 Jun 15  0:00)
ZTF0Dy2
1 99999U 00000    20167.49919926  .00000000  00000-0  00000-0 0  9631
2 99999 036.4856 330.2542 6634991 132.5156 033.3918 01.05264894    05

# Worst residual: 172.95 km
# MJD 59016.000000 (2020 Jun 16  0:00)
ZTF0Dy2
1 99999U 00000    20168.49919926  .00000000  00000-0  00000-0 0  9632
2 99999 036.5562 330.0918 6666065 133.3670 050.3351 01.05190655    05

# Worst residual: 165.08 km
# MJD 59017.000000 (2020 Jun 17  0:00)
ZTF0Dy2
1 99999U 00000    20169.49919926  .00000000  00000-0  00000-0 0  9633
2 99999 036.6266 329.9216 6696871 134.2315 067.2615 01.05104492    03

# Worst residual: 189.51 km
# MJD 59018.000000 (2020 Jun 18  0:00)
ZTF0Dy2
1 99999U 00000    20170.49919926  .00000000  00000-0  00000-0 0  9635
2 99999 036.6956 329.7556 6726353 135.1123 084.1193 01.05013605    04

# Worst residual: 188.79 km
# MJD 59019.000000 (2020 Jun 19  0:00)
ZTF0Dy2
1 99999U 00000    20171.49919926  .00000000  00000-0  00000-0 0  9636
2 99999 036.7587 329.5927 6754975 135.9747 100.9820 01.04927974    02

# Worst residual: 176.62 km
# MJD 59020.000000 (2020 Jun 20  0:00)
ZTF0Dy2
1 99999U 00000    20172.49919926  .00000000  00000-0  00000-0 0  9637
2 99999 036.8364 329.4281 6780746 136.8481 117.8199 01.04860524    01

# Worst residual: 145.27 km
# MJD 59021.000000 (2020 Jun 21  0:00)
ZTF0Dy2
1 99999U 00000    20173.49919926  .00000000  00000-0  00000-0 0  9638
2 99999 036.9074 329.2676 6804829 137.7085 134.6450 01.04796869    02

# Worst residual: 110.71 km
# MJD 59022.000000 (2020 Jun 22  0:00)
ZTF0Dy2
1 99999U 00000    20174.49919926  .00000000  00000-0  00000-0 0  9639
2 99999 036.9790 329.1110 6829098 138.5418 151.5055 01.04750516    01

# Worst residual: 67.36 km
# MJD 59023.000000 (2020 Jun 23  0:00)
ZTF0Dy2
1 99999U 00000    20175.49919926  .00000000  00000-0  00000-0 0  9630
2 99999 037.0466 328.9709 6852996 139.3648 168.3470 01.04722519    00

# Worst residual: 66.59 km
# MJD 59024.000000 (2020 Jun 24  0:00)
ZTF0Dy2
1 99999U 00000    20176.49919926  .00000000  00000-0  00000-0 0  9631
2 99999 037.1259 328.8139 6875424 140.1659 185.2427 01.04693676    01

# Worst residual: 83.47 km
# MJD 59025.000000 (2020 Jun 25  0:00)
ZTF0Dy2
1 99999U 00000    20177.49919926  .00000000  00000-0  00000-0 0  9632
2 99999 037.1822 328.6816 6902941 140.9376 202.1618 01.04711182    00

# Worst residual: 102.11 km
# MJD 59026.000000 (2020 Jun 26  0:00)
ZTF0Dy2
1 99999U 00000    20178.49919926  .00000000  00000-0  00000-0 0  9633
2 99999 037.2415 328.5549 6937535 141.7186 219.0757 01.04784573    01

# Worst residual: 195.25 km
# MJD 59027.000000 (2020 Jun 27  0:00)
ZTF0Dy2
1 99999U 00000    20179.49919926  .00000000  00000-0  00000-0 0  9634
2 99999 037.3155 328.4123 6968674 142.5458 235.9039 01.04850780    03

# Worst residual: 244.14 km
# MJD 59028.000000 (2020 Jun 28  0:00)
ZTF0Dy2
1 99999U 00000    20180.49919926  .00000000  00000-0  00000-0 0  9636
2 99999 037.3784 328.2868 6995873 143.3532 252.7611 01.04907656    06

# Worst residual: 203.80 km
# MJD 59029.000000 (2020 Jun 29  0:00)
ZTF0Dy2
1 99999U 00000    20181.49919926  .00000000  00000-0  00000-0 0  9637
2 99999 037.4473 328.1505 7025128 144.1772 269.6264 01.04994566    09

# Worst residual: 195.51 km
# MJD 59030.000000 (2020 Jun 30  0:00)
ZTF0Dy2
1 99999U 00000    20182.49919926  .00000000  00000-0  00000-0 0  9638
2 99999 037.4974 328.0492 7049381 144.9672 286.4745 01.05058213    05

# Worst residual: 171.87 km
# MJD 59031.000000 (2020 Jul  1  0:00)
ZTF0Dy2
1 99999U 00000    20183.49919926  .00000000  00000-0  00000-0 0  9639
2 99999 037.5701 327.9127 7072956 145.7537 303.4142 01.05122996    01

# Worst residual: 172.38 km
# MJD 59032.000000 (2020 Jul  2  0:00)
ZTF0Dy2
1 99999U 00000    20184.49919926  .00000000  00000-0  00000-0 0  9630
2 99999 037.6227 327.7984 7096374 146.5304 320.4078 01.05212304    05

# Worst residual: 159.30 km
# MJD 59033.000000 (2020 Jul  3  0:00)
ZTF0Dy2
1 99999U 00000    20185.49919926  .00000000  00000-0  00000-0 0  9631
2 99999 037.6578 327.7240 7118369 147.2452 337.5895 01.05297748    01
